SL-16 R/B               
1 22566U 93016B   26044.04286630 -.00000240  00000+0 -98663-4 0  9998
2 22566  71.0056 266.9501 0010504 347.6595  12.4269 14.15302364698680
COSMOS 2242             
1 22626U 93024A   26044.16353058  .00002272  00000+0  19751-3 0  9991
2 22626  82.5190 290.1760 0017312  32.3149 327.9129 14.96447696776724
SL-16 R/B               
1 22803U 93059B   26044.12634788 -.00000110  00000+0 -30527-4 0  9990
2 22803  70.9890  62.9267 0019463 250.4212 109.4810 14.17228164676054
ARIANE 40 R/B           
1 22830U 93061H   26044.18796543  .00000195  00000+0  87359-4 0  9993
2 22830  98.4970 113.5527 0010519   3.2933 356.8318 14.32847753690591
COSMOS 2278             
1 23087U 94023A   26043.84430479  .00000017  00000+0  33559-4 0  9998
2 23087  71.0501 227.0773 0006820  61.2209 298.9597 14.14363497641293
SL-16 R/B               
1 23088U 94023B   26044.18482146  .00000236  00000+0  14634-3 0  9990
2 23088  70.9995 122.3529 0004574 308.5670  51.5042 14.15005106642625
SL-16 R/B               
1 23343U 94074B   26044.03812721  .00000519  00000+0  76239-4 0  9994
2 23343  97.7142  75.8505 0005388 310.2497 109.5152 14.79378090683601
SL-16 R/B               
1 23405U 94077B   26044.10533182  .00000310  00000+0  18301-3 0  9999
2 23405  70.9822  44.2090 0004093 232.7341 127.3409 14.15559695612758
ARIANE 40+ R/B          
1 23561U 95021B   26044.20706992  .00000305  00000+0  11109-3 0  9997
2 23561  98.4550 116.0152 0006346 206.0852 172.8940 14.39754144615722
SL-16 R/B               
1 23705U 95058B   26043.96976681  .00000173  00000+0  11290-3 0  9997
2 23705  71.0194 232.1528 0011930 167.3205 192.8220 14.15495106564355
SL-16 R/B               
1 24298U 96051B   26043.95357749  .00000110  00000+0  86202-4 0  9993
2 24298  70.7567 227.5953 0017177 182.9891 177.1129 14.12408579518152
ORBVIEW 2 (SEASTAR)     
1 24883U 97037A   26044.02199299  .00000346  00000+0  13670-3 0  9990
2 24883  98.8523 207.6861 0003090 121.8667 238.2818 14.35475696504938
